STARLINK-36898          
1 68002U 26039S   26087.91668981  .00037909  00000+0  13467-2 0  9997
2 68002  42.9993 300.6591 0002034 257.8607 341.7750 15.28380599  5969
STARLINK-36862          
1 68003U 26039T   26087.91668981  .00028339  00000+0  10100-2 0  9996
2 68003  42.9994 300.8440 0001153 269.5231 254.2689 15.28395080  5960
STARLINK-36888          
1 68004U 26039U   26087.91668981  .00028869  00000+0  10287-2 0  9991
2 68004  42.9993 300.8579 0001801 273.4499 245.4330 15.28391314  5964
STARLINK-36910          
1 68005U 26039V   26087.91668981  .00029270  00000+0  10428-2 0  9996
2 68005  42.9994 300.5977 0001595 268.6467 355.6198 15.28392199  5964
STARLINK-36889          
1 68006U 26039W   26087.91668981 -.01840967  00000+0 -62002-1 0  9998
2 68006  42.9990 300.5156 0001278 252.3587  49.7292 15.33510823  5969
STARLINK-36592          
1 68007U 26039X   26087.91668981  .00036046  00000+0  12815-2 0  9999
2 68007  42.9994 300.4487 0001646 256.9362  69.1552 15.28375323  5963
STARLINK-36911          
1 68008U 26039Y   26087.91668981 -.02135966  00000+0 -75970-1 0  9995
2 68008  42.9997 300.3709 0001279 271.6627  87.3935 15.31743447  5960
STARLINK-36956          
1 68009U 26039Z   26087.91668981 -.01827987  00000+0 -60940-1 0  9997
2 68009  42.9997 300.3570 0001651 252.4353 113.4884 15.33801937  5969
STARLINK-36953          
1 68010U 26039AA  26087.91668981  .00060023  00000+0  21769-2 0  9993
2 68010  42.9974 300.1552 0001165 274.1027 169.8229 15.27521072  5963
STARLINK-36991          
1 68011U 26039AB  26087.94330613 -.00186526  00000+0 -33561-2 0  9997
2 68011  42.9989 300.5829 0006422 279.2747  80.7387 15.49643811  4647
STARLINK-36936          
1 68012U 26039AC  26087.91668981 -.01837678  00000+0 -51193-1 0  9999
2 68012  43.0000 300.1563 0001449 271.8146 176.0934 15.39334039  5961
STARLINK-36967          
1 68013U 26039AD  26086.90713377  .00110139  00000+0  18536-2 0  9996
2 68013  42.9999 306.5649 0001653 259.5586 100.5087 15.50628686  4484
STARLINK-36985          
1 68014U 26039AE  26087.91668981  .00040554  00000+0  14769-2 0  9996
2 68014  42.9991 300.0495 0001316 272.4404 214.0293 15.27540603  5964
STARLINK-36335          
1 68015U 26040A   26087.80224331  .00547143  00000+0  33695-2 0  9999
2 68015  97.2863  37.1845 0003221 143.2550 216.8937 15.75666337  4361
STARLINK-36923          
1 68016U 26040B   26087.86471411  .00161372  00000+0  10601-2 0  9997
2 68016  97.2860  37.2542 0001752  65.9812 294.1637 15.75241812  4376
STARLINK-36568          
1 68017U 26040C   26087.80047861  .00192472  00000+0  12586-2 0  9999
2 68017  97.2875  37.1883 0001684  87.9644 272.1814 15.75259843  4366
