[{"OBJECT_NAME":"STARLINK-36898","OBJECT_ID":"2026-039S","EPOCH":"2026-03-28T22:00:01.999584","MEAN_MOTION":15.28380599,"ECCENTRICITY":0.00020345,"INCLINATION":42.9993,"RA_OF_ASC_NODE":300.6591,"ARG_OF_PERICENTER":257.8607,"MEAN_ANOMALY":341.775,"EPHEMERIS_TYPE":0,"CLASSIFICATION_TYPE":"U","NORAD_CAT_ID":68002,"ELEMENT_SET_NO":999,"REV_AT_EPOCH":596,"BSTAR":0.0013467286,"MEAN_MOTION_DOT":0.00037909,"MEAN_MOTION_DDOT":0},{"OBJECT_NAME":"STARLINK-36862","OBJECT_ID":"2026-039T","EPOCH":"2026-03-28T22:00:01.999584","MEAN_MOTION":15.2839508,"ECCENTRICITY":0.00011539,"INCLINATION":42.9994,"RA_OF_ASC_NODE":300.844,"ARG_OF_PERICENTER":269.5231,"MEAN_ANOMALY":254.2689,"EPHEMERIS_TYPE":0,"CLASSIFICATION_TYPE":"U","NORAD_CAT_ID":68003,"ELEMENT_SET_NO":999,"REV_AT_EPOCH":596,"BSTAR":0.0010099687,"MEAN_MOTION_DOT":0.00028339,"MEAN_MOTION_DDOT":0},{"OBJECT_NAME":"STARLINK-36888","OBJECT_ID":"2026-039U","EPOCH":"2026-03-28T22:00:01.999584","MEAN_MOTION":15.28391314,"ECCENTRICITY":0.00018012,"INCLINATION":42.9993,"RA_OF_ASC_NODE":300.8579,"ARG_OF_PERICENTER":273.4499,"MEAN_ANOMALY":245.433,"EPHEMERIS_TYPE":0,"CLASSIFICATION_TYPE":"U","NORAD_CAT_ID":68004,"ELEMENT_SET_NO":999,"REV_AT_EPOCH":596,"BSTAR":0.001028714,"MEAN_MOTION_DOT":0.00028869,"MEAN_MOTION_DDOT":0},{"OBJECT_NAME":"STARLINK-36910","OBJECT_ID":"2026-039V","EPOCH":"2026-03-28T22:00:01.999584","MEAN_MOTION":15.28392199,"ECCENTRICITY":0.00015955,"INCLINATION":42.9994,"RA_OF_ASC_NODE":300.5977,"ARG_OF_PERICENTER":268.6467,"MEAN_ANOMALY":355.6198,"EPHEMERIS_TYPE":0,"CLASSIFICATION_TYPE":"U","NORAD_CAT_ID":68005,"ELEMENT_SET_NO":999,"REV_AT_EPOCH":596,"BSTAR":0.0010428247,"MEAN_MOTION_DOT":0.0002927,"MEAN_MOTION_DDOT":0},{"OBJECT_NAME":"STARLINK-36889","OBJECT_ID":"2026-039W","EPOCH":"2026-03-28T22:00:01.999584","MEAN_MOTION":15.33510823,"ECCENTRICITY":0.00012781,"INCLINATION":42.999,"RA_OF_ASC_NODE":300.5156,"ARG_OF_PERICENTER":252.3587,"MEAN_ANOMALY":49.7292,"EPHEMERIS_TYPE":0,"CLASSIFICATION_TYPE":"U","NORAD_CAT_ID":68006,"ELEMENT_SET_NO":999,"REV_AT_EPOCH":596,"BSTAR":-0.062001574,"MEAN_MOTION_DOT":-0.01840967,"MEAN_MOTION_DDOT":0},{"OBJECT_NAME":"STARLINK-36592","OBJECT_ID":"2026-039X","EPOCH":"2026-03-28T22:00:01.999584","MEAN_MOTION":15.28375323,"ECCENTRICITY":0.00016469,"INCLINATION":42.9994,"RA_OF_ASC_NODE":300.4487,"ARG_OF_PERICENTER":256.9362,"MEAN_ANOMALY":69.1552,"EPHEMERIS_TYPE":0,"CLASSIFICATION_TYPE":"U","NORAD_CAT_ID":68007,"ELEMENT_SET_NO":999,"REV_AT_EPOCH":596,"BSTAR":0.0012815476,"MEAN_MOTION_DOT":0.00036046,"MEAN_MOTION_DDOT":0},{"OBJECT_NAME":"STARLINK-36911","OBJECT_ID":"2026-039Y","EPOCH":"2026-03-28T22:00:01.999584","MEAN_MOTION":15.31743447,"ECCENTRICITY":0.00012796,"INCLINATION":42.9997,"RA_OF_ASC_NODE":300.3709,"ARG_OF_PERICENTER":271.6627,"MEAN_ANOMALY":87.3935,"EPHEMERIS_TYPE":0,"CLASSIFICATION_TYPE":"U","NORAD_CAT_ID":68008,"ELEMENT_SET_NO":999,"REV_AT_EPOCH":596,"BSTAR":-0.075970493,"MEAN_MOTION_DOT":-0.02135966,"MEAN_MOTION_DDOT":0},{"OBJECT_NAME":"STARLINK-36956","OBJECT_ID":"2026-039Z","EPOCH":"2026-03-28T22:00:01.999584","MEAN_MOTION":15.33801937,"ECCENTRICITY":0.00016519,"INCLINATION":42.9997,"RA_OF_ASC_NODE":300.357,"ARG_OF_PERICENTER":252.4353,"MEAN_ANOMALY":113.4884,"EPHEMERIS_TYPE":0,"CLASSIFICATION_TYPE":"U","NORAD_CAT_ID":68009,"ELEMENT_SET_NO":999,"REV_AT_EPOCH":596,"BSTAR":-0.060939743,"MEAN_MOTION_DOT":-0.01827987,"MEAN_MOTION_DDOT":0},{"OBJECT_NAME":"STARLINK-36953","OBJECT_ID":"2026-039AA","EPOCH":"2026-03-28T22:00:01.999584","MEAN_MOTION":15.27521072,"ECCENTRICITY":0.00011651,"INCLINATION":42.9974,"RA_OF_ASC_NODE":300.1552,"ARG_OF_PERICENTER":274.1027,"MEAN_ANOMALY":169.8229,"EPHEMERIS_TYPE":0,"CLASSIFICATION_TYPE":"U","NORAD_CAT_ID":68010,"ELEMENT_SET_NO":999,"REV_AT_EPOCH":596,"BSTAR":0.0021769369,"MEAN_MOTION_DOT":0.00060023,"MEAN_MOTION_DDOT":0},{"OBJECT_NAME":"STARLINK-36991","OBJECT_ID":"2026-039AB","EPOCH":"2026-03-28T22:38:21.649632","MEAN_MOTION":15.49643811,"ECCENTRICITY":0.00064221,"INCLINATION":42.9989,"RA_OF_ASC_NODE":300.5829,"ARG_OF_PERICENTER":279.2747,"MEAN_ANOMALY":80.7387,"EPHEMERIS_TYPE":0,"CLASSIFICATION_TYPE":"U","NORAD_CAT_ID":68011,"ELEMENT_SET_NO":999,"REV_AT_EPOCH":464,"BSTAR":-0.0033561322,"MEAN_MOTION_DOT":-0.00186526,"MEAN_MOTION_DDOT":0},{"OBJECT_NAME":"STARLINK-36936","OBJECT_ID":"2026-039AC","EPOCH":"2026-03-28T22:00:01.999584","MEAN_MOTION":15.39334039,"ECCENTRICITY":0.00014496,"INCLINATION":43,"RA_OF_ASC_NODE":300.1563,"ARG_OF_PERICENTER":271.8146,"MEAN_ANOMALY":176.0934,"EPHEMERIS_TYPE":0,"CLASSIFICATION_TYPE":"U","NORAD_CAT_ID":68012,"ELEMENT_SET_NO":999,"REV_AT_EPOCH":596,"BSTAR":-0.051193445,"MEAN_MOTION_DOT":-0.01837678,"MEAN_MOTION_DDOT":0},{"OBJECT_NAME":"STARLINK-36967","OBJECT_ID":"2026-039AD","EPOCH":"2026-03-27T21:46:16.357728","MEAN_MOTION":15.50628686,"ECCENTRICITY":0.0001653,"INCLINATION":42.9999,"RA_OF_ASC_NODE":306.5649,"ARG_OF_PERICENTER":259.5586,"MEAN_ANOMALY":100.5087,"EPHEMERIS_TYPE":0,"CLASSIFICATION_TYPE":"U","NORAD_CAT_ID":68013,"ELEMENT_SET_NO":999,"REV_AT_EPOCH":448,"BSTAR":0.0018536,"MEAN_MOTION_DOT":0.00110139,"MEAN_MOTION_DDOT":0},{"OBJECT_NAME":"STARLINK-36985","OBJECT_ID":"2026-039AE","EPOCH":"2026-03-28T22:00:01.999584","MEAN_MOTION":15.27540603,"ECCENTRICITY":0.00013168,"INCLINATION":42.9991,"RA_OF_ASC_NODE":300.0495,"ARG_OF_PERICENTER":272.4404,"MEAN_ANOMALY":214.0293,"EPHEMERIS_TYPE":0,"CLASSIFICATION_TYPE":"U","NORAD_CAT_ID":68014,"ELEMENT_SET_NO":999,"REV_AT_EPOCH":596,"BSTAR":0.0014769017,"MEAN_MOTION_DOT":0.00040554,"MEAN_MOTION_DDOT":0},{"OBJECT_NAME":"STARLINK-36335","OBJECT_ID":"2026-040A","EPOCH":"2026-03-28T19:15:13.821984","MEAN_MOTION":15.75666337,"ECCENTRICITY":0.00032213,"INCLINATION":97.2863,"RA_OF_ASC_NODE":37.1845,"ARG_OF_PERICENTER":143.255,"MEAN_ANOMALY":216.8937,"EPHEMERIS_TYPE":0,"CLASSIFICATION_TYPE":"U","NORAD_CAT_ID":68015,"ELEMENT_SET_NO":999,"REV_AT_EPOCH":436,"BSTAR":0.0033694948,"MEAN_MOTION_DOT":0.00547143,"MEAN_MOTION_DDOT":0},{"OBJECT_NAME":"STARLINK-36923","OBJECT_ID":"2026-040B","EPOCH":"2026-03-28T20:45:11.299104","MEAN_MOTION":15.75241812,"ECCENTRICITY":0.00017522,"INCLINATION":97.286,"RA_OF_ASC_NODE":37.2542,"ARG_OF_PERICENTER":65.9812,"MEAN_ANOMALY":294.1637,"EPHEMERIS_TYPE":0,"CLASSIFICATION_TYPE":"U","NORAD_CAT_ID":68016,"ELEMENT_SET_NO":999,"REV_AT_EPOCH":437,"BSTAR":0.0010600654,"MEAN_MOTION_DOT":0.00161372,"MEAN_MOTION_DDOT":0},{"OBJECT_NAME":"STARLINK-36568","OBJECT_ID":"2026-040C","EPOCH":"2026-03-28T19:12:41.351904","MEAN_MOTION":15.75259843,"ECCENTRICITY":0.00016845,"INCLINATION":97.2875,"RA_OF_ASC_NODE":37.1883,"ARG_OF_PERICENTER":87.9644,"MEAN_ANOMALY":272.1814,"EPHEMERIS_TYPE":0,"CLASSIFICATION_TYPE":"U","NORAD_CAT_ID":68017,"ELEMENT_SET_NO":999,"REV_AT_EPOCH":436,"BSTAR":0.0012585983,"MEAN_MOTION_DOT":0.00192472,"MEAN_MOTION_DDOT":0}]
